STARLINK-35825          
1 66567U 25268L   25342.91670139 -.01545402  00000+0 -28055-1 0  9998
2 66567  43.0005 143.5121 0001632 259.4200  91.8134 15.51663026  4055
STARLINK-35803          
1 66568U 25268M   25342.91670139 -.01548581  00000+0 -28112-1 0  9994
2 66568  43.0002 143.5066 0001703 259.0817  94.0636 15.51668672  4054
STARLINK-35835          
1 66569U 25268N   25342.91670139 -.01552134  00000+0 -28180-1 0  9999
2 66569  43.0002 143.5020 0001707 258.0148  97.0453 15.51671911  4055
STARLINK-35834          
1 66570U 25268P   25342.91670139 -.01550789  00000+0 -28160-1 0  9993
2 66570  43.0006 143.4965 0001503 268.0881  88.8937 15.51667201  4059
STARLINK-35836          
1 66571U 25268Q   25342.91670139 -.01541887  00000+0 -27979-1 0  9990
2 66571  43.0004 143.4926 0001650 269.4204  89.4693 15.51667927  4053
STARLINK-35870          
1 66572U 25268R   25342.91670139 -.01555448  00000+0 -28248-1 0  9999
2 66572  43.0005 143.4883 0001662 266.3354  94.4778 15.51671614  4050
STARLINK-35650          
1 66573U 25268S   25342.91670139 -.01552087  00000+0 -28185-1 0  9996
2 66573  43.0006 143.4825 0001653 269.4871  93.2469 15.51667011  4056
STARLINK-35812          
1 66574U 25268T   25342.91670139 -.01300991  00000+0 -23677-1 0  9993
2 66574  43.0007 143.4776 0001944 264.9234  99.7111 15.51563779  4050
STARLINK-35810          
1 66575U 25268U   25342.91670139 -.01307790  00000+0 -23810-1 0  9997
2 66575  43.0007 143.4727 0001880 267.5120  99.0382 15.51568169  4050
STARLINK-35814          
1 66576U 25268V   25342.91670139 -.01535415  00000+0 -27859-1 0  9992
2 66576  43.0005 143.4680 0001740 256.1642 112.3218 15.51657709  4051
STARLINK-35815          
1 66577U 25268W   25342.91670139 -.01550983  00000+0 -28158-1 0  9993
2 66577  43.0004 143.4632 0001815 260.5637 109.8338 15.51669728  4052
STARLINK-35743          
1 66578U 25268X   25342.91670139 -.01551859  00000+0 -28177-1 0  9998
2 66578  43.0003 143.4583 0001793 262.2132 110.1021 15.51669162  4057
