CCSDS_OMM_VERS = 2.0
CREATION_DATE  = 
ORIGINATOR     = 

OBJECT_NAME    = STARLINK-35825
OBJECT_ID      = 2025-268L
CENTER_NAME    = EARTH
REF_FRAME      = TEME
TIME_SYSTEM    = UTC
MEAN_ELEMENT_THEORY = SGP/SGP4

EPOCH          = 2025-12-08T22:00:03.000096
MEAN_MOTION    = 15.51663026
ECCENTRICITY   = .00016323
INCLINATION    = 43.0005
RA_OF_ASC_NODE = 143.5121
ARG_OF_PERICENTER = 259.4200
MEAN_ANOMALY   = 91.8134

EPHEMERIS_TYPE = 0
CLASSIFICATION_TYPE = U
NORAD_CAT_ID   = 66567
ELEMENT_SET_NO = 999
REV_AT_EPOCH   = 405
BSTAR          = -.28054806E-1
MEAN_MOTION_DOT = -.1545402E-1
MEAN_MOTION_DDOT = 0

CCSDS_OMM_VERS = 2.0
CREATION_DATE  = 
ORIGINATOR     = 

OBJECT_NAME    = STARLINK-35803
OBJECT_ID      = 2025-268M
CENTER_NAME    = EARTH
REF_FRAME      = TEME
TIME_SYSTEM    = UTC
MEAN_ELEMENT_THEORY = SGP/SGP4

EPOCH          = 2025-12-08T22:00:03.000096
MEAN_MOTION    = 15.51668672
ECCENTRICITY   = .00017035
INCLINATION    = 43.0002
RA_OF_ASC_NODE = 143.5066
ARG_OF_PERICENTER = 259.0817
MEAN_ANOMALY   = 94.0636

EPHEMERIS_TYPE = 0
CLASSIFICATION_TYPE = U
NORAD_CAT_ID   = 66568
ELEMENT_SET_NO = 999
REV_AT_EPOCH   = 405
BSTAR          = -.2811223E-1
MEAN_MOTION_DOT = -.1548581E-1
MEAN_MOTION_DDOT = 0

CCSDS_OMM_VERS = 2.0
CREATION_DATE  = 
ORIGINATOR     = 

OBJECT_NAME    = STARLINK-35835
OBJECT_ID      = 2025-268N
CENTER_NAME    = EARTH
REF_FRAME      = TEME
TIME_SYSTEM    = UTC
MEAN_ELEMENT_THEORY = SGP/SGP4

EPOCH          = 2025-12-08T22:00:03.000096
MEAN_MOTION    = 15.51671911
ECCENTRICITY   = .00017073
INCLINATION    = 43.0002
RA_OF_ASC_NODE = 143.5020
ARG_OF_PERICENTER = 258.0148
MEAN_ANOMALY   = 97.0453

EPHEMERIS_TYPE = 0
CLASSIFICATION_TYPE = U
NORAD_CAT_ID   = 66569
ELEMENT_SET_NO = 999
REV_AT_EPOCH   = 405
BSTAR          = -.28180235E-1
MEAN_MOTION_DOT = -.1552134E-1
MEAN_MOTION_DDOT = 0

CCSDS_OMM_VERS = 2.0
CREATION_DATE  = 
ORIGINATOR     = 

OBJECT_NAME    = STARLINK-35834
OBJECT_ID      = 2025-268P
CENTER_NAME    = EARTH
REF_FRAME      = TEME
TIME_SYSTEM    = UTC
MEAN_ELEMENT_THEORY = SGP/SGP4

EPOCH          = 2025-12-08T22:00:03.000096
MEAN_MOTION    = 15.51667201
ECCENTRICITY   = .00015031
INCLINATION    = 43.0006
RA_OF_ASC_NODE = 143.4965
ARG_OF_PERICENTER = 268.0881
MEAN_ANOMALY   = 88.8937

EPHEMERIS_TYPE = 0
CLASSIFICATION_TYPE = U
NORAD_CAT_ID   = 66570
ELEMENT_SET_NO = 999
REV_AT_EPOCH   = 405
BSTAR          = -.28159817E-1
MEAN_MOTION_DOT = -.1550789E-1
MEAN_MOTION_DDOT = 0

CCSDS_OMM_VERS = 2.0
CREATION_DATE  = 
ORIGINATOR     = 

OBJECT_NAME    = STARLINK-35836
OBJECT_ID      = 2025-268Q
CENTER_NAME    = EARTH
REF_FRAME      = TEME
TIME_SYSTEM    = UTC
MEAN_ELEMENT_THEORY = SGP/SGP4

EPOCH          = 2025-12-08T22:00:03.000096
MEAN_MOTION    = 15.51667927
ECCENTRICITY   = .00016502
INCLINATION    = 43.0004
RA_OF_ASC_NODE = 143.4926
ARG_OF_PERICENTER = 269.4204
MEAN_ANOMALY   = 89.4693

EPHEMERIS_TYPE = 0
CLASSIFICATION_TYPE = U
NORAD_CAT_ID   = 66571
ELEMENT_SET_NO = 999
REV_AT_EPOCH   = 405
BSTAR          = -.27979159E-1
MEAN_MOTION_DOT = -.1541887E-1
MEAN_MOTION_DDOT = 0

CCSDS_OMM_VERS = 2.0
CREATION_DATE  = 
ORIGINATOR     = 

OBJECT_NAME    = STARLINK-35870
OBJECT_ID      = 2025-268R
CENTER_NAME    = EARTH
REF_FRAME      = TEME
TIME_SYSTEM    = UTC
MEAN_ELEMENT_THEORY = SGP/SGP4

EPOCH          = 2025-12-08T22:00:03.000096
MEAN_MOTION    = 15.51671614
ECCENTRICITY   = .00016623
INCLINATION    = 43.0005
RA_OF_ASC_NODE = 143.4883
ARG_OF_PERICENTER = 266.3354
MEAN_ANOMALY   = 94.4778

EPHEMERIS_TYPE = 0
CLASSIFICATION_TYPE = U
NORAD_CAT_ID   = 66572
ELEMENT_SET_NO = 999
REV_AT_EPOCH   = 405
BSTAR          = -.28247505E-1
MEAN_MOTION_DOT = -.1555448E-1
MEAN_MOTION_DDOT = 0

CCSDS_OMM_VERS = 2.0
CREATION_DATE  = 
ORIGINATOR     = 

OBJECT_NAME    = STARLINK-35650
OBJECT_ID      = 2025-268S
CENTER_NAME    = EARTH
REF_FRAME      = TEME
TIME_SYSTEM    = UTC
MEAN_ELEMENT_THEORY = SGP/SGP4

EPOCH          = 2025-12-08T22:00:03.000096
MEAN_MOTION    = 15.51667011
ECCENTRICITY   = .00016531
INCLINATION    = 43.0006
RA_OF_ASC_NODE = 143.4825
ARG_OF_PERICENTER = 269.4871
MEAN_ANOMALY   = 93.2469

EPHEMERIS_TYPE = 0
CLASSIFICATION_TYPE = U
NORAD_CAT_ID   = 66573
ELEMENT_SET_NO = 999
REV_AT_EPOCH   = 405
BSTAR          = -.28184772E-1
MEAN_MOTION_DOT = -.1552087E-1
MEAN_MOTION_DDOT = 0

CCSDS_OMM_VERS = 2.0
CREATION_DATE  = 
ORIGINATOR     = 

OBJECT_NAME    = STARLINK-35812
OBJECT_ID      = 2025-268T
CENTER_NAME    = EARTH
REF_FRAME      = TEME
TIME_SYSTEM    = UTC
MEAN_ELEMENT_THEORY = SGP/SGP4

EPOCH          = 2025-12-08T22:00:03.000096
MEAN_MOTION    = 15.51563779
ECCENTRICITY   = .00019443
INCLINATION    = 43.0007
RA_OF_ASC_NODE = 143.4776
ARG_OF_PERICENTER = 264.9234
MEAN_ANOMALY   = 99.7111

EPHEMERIS_TYPE = 0
CLASSIFICATION_TYPE = U
NORAD_CAT_ID   = 66574
ELEMENT_SET_NO = 999
REV_AT_EPOCH   = 405
BSTAR          = -.23676539E-1
MEAN_MOTION_DOT = -.1300991E-1
MEAN_MOTION_DDOT = 0

CCSDS_OMM_VERS = 2.0
CREATION_DATE  = 
ORIGINATOR     = 

OBJECT_NAME    = STARLINK-35810
OBJECT_ID      = 2025-268U
CENTER_NAME    = EARTH
REF_FRAME      = TEME
TIME_SYSTEM    = UTC
MEAN_ELEMENT_THEORY = SGP/SGP4

EPOCH          = 2025-12-08T22:00:03.000096
MEAN_MOTION    = 15.51568169
ECCENTRICITY   = .00018807
INCLINATION    = 43.0007
RA_OF_ASC_NODE = 143.4727
ARG_OF_PERICENTER = 267.5120
MEAN_ANOMALY   = 99.0382

EPHEMERIS_TYPE = 0
CLASSIFICATION_TYPE = U
NORAD_CAT_ID   = 66575
ELEMENT_SET_NO = 999
REV_AT_EPOCH   = 405
BSTAR          = -.23809935E-1
MEAN_MOTION_DOT = -.130779E-1
MEAN_MOTION_DDOT = 0

CCSDS_OMM_VERS = 2.0
CREATION_DATE  = 
ORIGINATOR     = 

OBJECT_NAME    = STARLINK-35814
OBJECT_ID      = 2025-268V
CENTER_NAME    = EARTH
REF_FRAME      = TEME
TIME_SYSTEM    = UTC
MEAN_ELEMENT_THEORY = SGP/SGP4

EPOCH          = 2025-12-08T22:00:03.000096
MEAN_MOTION    = 15.51657709
ECCENTRICITY   = .00017408
INCLINATION    = 43.0005
RA_OF_ASC_NODE = 143.4680
ARG_OF_PERICENTER = 256.1642
MEAN_ANOMALY   = 112.3218

EPHEMERIS_TYPE = 0
CLASSIFICATION_TYPE = U
NORAD_CAT_ID   = 66576
ELEMENT_SET_NO = 999
REV_AT_EPOCH   = 405
BSTAR          = -.27858927E-1
MEAN_MOTION_DOT = -.1535415E-1
MEAN_MOTION_DDOT = 0

CCSDS_OMM_VERS = 2.0
CREATION_DATE  = 
ORIGINATOR     = 

OBJECT_NAME    = STARLINK-35815
OBJECT_ID      = 2025-268W
CENTER_NAME    = EARTH
REF_FRAME      = TEME
TIME_SYSTEM    = UTC
MEAN_ELEMENT_THEORY = SGP/SGP4

EPOCH          = 2025-12-08T22:00:03.000096
MEAN_MOTION    = 15.51669728
ECCENTRICITY   = .00018157
INCLINATION    = 43.0004
RA_OF_ASC_NODE = 143.4632
ARG_OF_PERICENTER = 260.5637
MEAN_ANOMALY   = 109.8338

EPHEMERIS_TYPE = 0
CLASSIFICATION_TYPE = U
NORAD_CAT_ID   = 66577
ELEMENT_SET_NO = 999
REV_AT_EPOCH   = 405
BSTAR          = -.28158382E-1
MEAN_MOTION_DOT = -.1550983E-1
MEAN_MOTION_DDOT = 0

CCSDS_OMM_VERS = 2.0
CREATION_DATE  = 
ORIGINATOR     = 

OBJECT_NAME    = STARLINK-35743
OBJECT_ID      = 2025-268X
CENTER_NAME    = EARTH
REF_FRAME      = TEME
TIME_SYSTEM    = UTC
MEAN_ELEMENT_THEORY = SGP/SGP4

EPOCH          = 2025-12-08T22:00:03.000096
MEAN_MOTION    = 15.51669162
ECCENTRICITY   = .00017937
INCLINATION    = 43.0003
RA_OF_ASC_NODE = 143.4583
ARG_OF_PERICENTER = 262.2132
MEAN_ANOMALY   = 110.1021

EPHEMERIS_TYPE = 0
CLASSIFICATION_TYPE = U
NORAD_CAT_ID   = 66578
ELEMENT_SET_NO = 999
REV_AT_EPOCH   = 405
BSTAR          = -.28176743E-1
MEAN_MOTION_DOT = -.1551859E-1
MEAN_MOTION_DDOT = 0

